{"type": "FeatureCollection", "features": [ {"type": "Feature", "properties": {"norad_id": 58662, "name": "TIANMU-1 21", "group": "weather", "lat": 20.9413716632981, "lon": 89.98478942107987, "alt_km": 471.92629428830696, "timestamp": "2025-12-05T11:32:55.669899+00:00", "meta": {"OBJECT_NAME": "TIANMU-1 21", "OBJECT_ID": "2023-208C", "EPOCH": "2025-12-04T18:12:19.887264", "MEAN_MOTION": 15.31290573, "ECCENTRICITY": 0.0005943, "INCLINATION": 97.4382, "RA_OF_ASC_NODE": 92.1258, "ARG_OF_PERICENTER": 293.3099, "MEAN_ANOMALY": 66.7516, "EPHEMERIS_TYPE": 0, "CLASSIFICATION_TYPE": "U", "NORAD_CAT_ID": 58662, "ELEMENT_SET_NO": 999, "REV_AT_EPOCH": 10777, "BSTAR": 0.00069242, "MEAN_MOTION_DOT": 0.00020893, "MEAN_MOTION_DDOT": 0}, "tle": {"line1": "1 58662U 23208C   25338.75856351  .00020893  00000+0  69242-3 0  9990", "line2": "2 58662  97.4382  92.1258 0005943 293.3099  66.7516 15.31290573107774"}}, "geometry": {"type": "Point", "coordinates": [89.98478942107987, 20.9413716632981]}}, {"type": "Feature", "properties": {"norad_id": 58663, "name": "TIANMU-1 22", "group": "weather", "lat": 45.232875387591164, "lon": 83.02706647080882, "alt_km": 479.4604772491184, "timestamp": "2025-12-05T11:32:55.669909+00:00", "meta": {"OBJECT_NAME": "TIANMU-1 22", "OBJECT_ID": "2023-208D", "EPOCH": "2025-12-04T18:03:14.613408", "MEAN_MOTION": 15.27396045, "ECCENTRICITY": 0.0003007, "INCLINATION": 97.439, "RA_OF_ASC_NODE": 89.8696, "ARG_OF_PERICENTER": 324.9806, "MEAN_ANOMALY": 35.1235, "EPHEMERIS_TYPE": 0, "CLASSIFICATION_TYPE": "U", "NORAD_CAT_ID": 58663, "ELEMENT_SET_NO": 999, "REV_AT_EPOCH": 10761, "BSTAR": 0.00066154, "MEAN_MOTION_DOT": 0.00017694, "MEAN_MOTION_DDOT": 0}, "tle": {"line1": "1 58663U 23208D   25338.75225247  .00017694  00000+0  66154-3 0  9999", "line2": "2 58663  97.4390  89.8696 0003007 324.9806  35.1235 15.27396045107616"}}, "geometry": {"type": "Point", "coordinates": [83.02706647080882, 45.232875387591164]}}, {"type": "Feature", "properties": {"norad_id": 58700, "name": "TIANMU-1 15", "group": "weather", "lat": -69.56733830860662, "lon": -39.62319481460258, "alt_km": 498.62688980198436, "timestamp": "2025-12-05T11:32:55.669919+00:00", "meta": {"OBJECT_NAME": "TIANMU-1 15", "OBJECT_ID": "2024-004A", "EPOCH": "2025-12-04T18:41:54.388608", "MEAN_MOTION": 15.2451637, "ECCENTRICITY": 0.0005679, "INCLINATION": 97.4624, "RA_OF_ASC_NODE": 160.2775, "ARG_OF_PERICENTER": 330.8355, "MEAN_ANOMALY": 29.2565, "EPHEMERIS_TYPE": 0, "CLASSIFICATION_TYPE": "U", "NORAD_CAT_ID": 58700, "ELEMENT_SET_NO": 999, "REV_AT_EPOCH": 10613, "BSTAR": 0.00057433, "MEAN_MOTION_DOT": 0.00014074, "MEAN_MOTION_DDOT": 0}, "tle": {"line1": "1 58700U 24004A   25338.77910172  .00014074  00000+0  57433-3 0  9995", "line2": "2 58700  97.4624 160.2775 0005679 330.8355  29.2565 15.24516370106130"}}, "geometry": {"type": "Point", "coordinates": [-39.62319481460258, -69.56733830860662]}}, {"type": "Feature", "properties": {"norad_id": 58701, "name": "TIANMU-1 16", "group": "weather", "lat": -20.754283837372974, "lon": 163.21951498611546, "alt_km": 494.92157822686477, "timestamp": "2025-12-05T11:32:55.669929+00:00", "meta": {"OBJECT_NAME": "TIANMU-1 16", "OBJECT_ID": "2024-004B", "EPOCH": "2025-12-04T10:25:53.796288", "MEAN_MOTION": 15.24253221, "ECCENTRICITY": 0.000511, "INCLINATION": 97.4569, "RA_OF_ASC_NODE": 159.3334, "ARG_OF_PERICENTER": 331.1239, "MEAN_ANOMALY": 28.9715, "EPHEMERIS_TYPE": 0, "CLASSIFICATION_TYPE": "U", "NORAD_CAT_ID": 58701, "ELEMENT_SET_NO": 999, "REV_AT_EPOCH": 10608, "BSTAR": 8.3688e-05, "MEAN_MOTION_DOT": 1.97e-05, "MEAN_MOTION_DDOT": 0}, "tle": {"line1": "1 58701U 24004B   25338.43465042  .00001970  00000+0  83688-4 0  9993", "line2": "2 58701  97.4569 159.3334 0005110 331.1239  28.9715 15.24253221106084"}}, "geometry": {"type": "Point", "coordinates": [163.21951498611546, -20.754283837372974]}}, {"type": "Feature", "properties": {"norad_id": 58702, "name": "TIANMU-1 17", "group": "weather", "lat": 61.634625830734116, "lon": 146.73552946473262, "alt_km": 486.9073245546897, "timestamp": "2025-12-05T11:32:55.669938+00:00", "meta": {"OBJECT_NAME": "TIANMU-1 17", "OBJECT_ID": "2024-004C", "EPOCH": "2025-12-04T17:56:42.695232", "MEAN_MOTION": 15.24312361, "ECCENTRICITY": 0.0004208, "INCLINATION": 97.4595, "RA_OF_ASC_NODE": 160.0501, "ARG_OF_PERICENTER": 333.5998, "MEAN_ANOMALY": 26.5024, "EPHEMERIS_TYPE": 0, "CLASSIFICATION_TYPE": "U", "NORAD_CAT_ID": 58702, "ELEMENT_SET_NO": 999, "REV_AT_EPOCH": 10612, "BSTAR": 0.00054682, "MEAN_MOTION_DOT": 0.00013311, "MEAN_MOTION_DDOT": 0}, "tle": {"line1": "1 58702U 24004C   25338.74771638  .00013311  00000+0  54682-3 0  9992", "line2": "2 58702  97.4595 160.0501 0004208 333.5998  26.5024 15.24312361106127"}}, "geometry": {"type": "Point", "coordinates": [146.73552946473262, 61.634625830734116]}}, {"type": "Feature", "properties": {"norad_id": 58703, "name": "TIANMU-1 18", "group": "weather", "lat": 25.30558673909978, "lon": -15.473515279565547, "alt_km": 494.59263245191687, "timestamp": "2025-12-05T11:32:55.669950+00:00", "meta": {"OBJECT_NAME": "TIANMU-1 18", "OBJECT_ID": "2024-004D", "EPOCH": "2025-12-04T17:32:36.132000", "MEAN_MOTION": 15.24303484, "ECCENTRICITY": 0.0003586, "INCLINATION": 97.4613, "RA_OF_ASC_NODE": 160.227, "ARG_OF_PERICENTER": 334.7201, "MEAN_ANOMALY": 25.386, "EPHEMERIS_TYPE": 0, "CLASSIFICATION_TYPE": "U", "NORAD_CAT_ID": 58703, "ELEMENT_SET_NO": 999, "REV_AT_EPOCH": 10612, "BSTAR": 0.00056601, "MEAN_MOTION_DOT": 0.00013777, "MEAN_MOTION_DDOT": 0}, "tle": {"line1": "1 58703U 24004D   25338.73097375  .00013777  00000+0  56601-3 0  9990", "line2": "2 58703  97.4613 160.2270 0003586 334.7201  25.3860 15.24303484106123"}}, "geometry": {"type": "Point", "coordinates": [-15.473515279565547, 25.30558673909978]}}, {"type": "Feature", "properties": {"norad_id": 58990, "name": "INSAT-3DS", "group": "weather", "lat": -0.005753351398851407, "lon": -30.15506789731792, "alt_km": 35784.34268932286, "timestamp": "2025-12-05T11:32:55.669962+00:00", "meta": {"OBJECT_NAME": "INSAT-3DS", "OBJECT_ID": "2024-033A", "EPOCH": "2025-12-04T14:07:02.364384", "MEAN_MOTION": 1.00268719, "ECCENTRICITY": 0.0001758, "INCLINATION": 0.0119, "RA_OF_ASC_NODE": 346.2482, "ARG_OF_PERICENTER": 274.3669, "MEAN_ANOMALY": 106.8853, "EPHEMERIS_TYPE": 0, "CLASSIFICATION_TYPE": "U", "NORAD_CAT_ID": 58990, "ELEMENT_SET_NO": 999, "REV_AT_EPOCH": 4511, "BSTAR": 0, "MEAN_MOTION_DOT": 0, "MEAN_MOTION_DDOT": 0}, "tle": {"line1": "1 58990U 24033A   25338.58822181  .00000000  00000+0  00000+0 0  9997", "line2": "2 58990   0.0119 346.2482 0001758 274.3669 106.8853  1.00268719 45117"}}, "geometry": {"type": "Point", "coordinates": [-30.15506789731792, -0.005753351398851407]}}, {"type": "Feature", "properties": {"norad_id": 59051, "name": "METEOR-M2 4", "group": "weather", "lat": 68.4201733653019, "lon": 139.2113592076824, "alt_km": 810.6647824342408, "timestamp": "2025-12-05T11:32:55.669973+00:00", "meta": {"OBJECT_NAME": "METEOR-M2 4", "OBJECT_ID": "2024-039A", "EPOCH": "2025-12-04T18:09:09.180000", "MEAN_MOTION": 14.22399386, "ECCENTRICITY": 0.0007471, "INCLINATION": 98.6754, "RA_OF_ASC_NODE": 295.7909, "ARG_OF_PERICENTER": 20.8279, "MEAN_ANOMALY": 339.3202, "EPHEMERIS_TYPE": 0, "CLASSIFICATION_TYPE": "U", "NORAD_CAT_ID": 59051, "ELEMENT_SET_NO": 999, "REV_AT_EPOCH": 9162, "BSTAR": 6.2659e-05, "MEAN_MOTION_DOT": 9.6e-07, "MEAN_MOTION_DDOT": 0}, "tle": {"line1": "1 59051U 24039A   25338.75635625  .00000096  00000+0  62659-4 0  9994", "line2": "2 59051  98.6754 295.7909 0007471  20.8279 339.3202 14.22399386 91626"}}, "geometry": {"type": "Point", "coordinates": [139.2113592076824, 68.4201733653019]}}, {"type": "Feature", "properties": {"norad_id": 60133, "name": "GOES 19", "group": "weather", "lat": -0.0005977393695175318, "lon": 172.55740879700178, "alt_km": 35789.786354914315, "timestamp": "2025-12-05T11:32:55.669986+00:00", "meta": {"OBJECT_NAME": "GOES 19", "OBJECT_ID": "2024-119A", "EPOCH": "2025-12-04T11:39:20.571264", "MEAN_MOTION": 1.00270587, "ECCENTRICITY": 0.0001344, "INCLINATION": 0.0089, "RA_OF_ASC_NODE": 79.657, "ARG_OF_PERICENTER": 218.516, "MEAN_ANOMALY": 235.0408, "EPHEMERIS_TYPE": 0, "CLASSIFICATION_TYPE": "U", "NORAD_CAT_ID": 60133, "ELEMENT_SET_NO": 999, "REV_AT_EPOCH": 501, "BSTAR": 0, "MEAN_MOTION_DOT": -2.33e-06, "MEAN_MOTION_DDOT": 0}, "tle": {"line1": "1 60133U 24119A   25338.48565476 -.00000233  00000+0  00000+0 0  9993", "line2": "2 60133   0.0089  79.6570 0001344 218.5160 235.0408  1.00270587  5019"}}, "geometry": {"type": "Point", "coordinates": [172.55740879700178, -0.0005977393695175318]}}, {"type": "Feature", "properties": {"norad_id": 65815, "name": "FENGYUN 3H", "group": "weather", "lat": 52.848373679818216, "lon": -92.37016578522069, "alt_km": 820.2753215714201, "timestamp": "2025-12-05T11:32:55.669997+00:00", "meta": {"OBJECT_NAME": "FENGYUN 3H", "OBJECT_ID": "2025-219A", "EPOCH": "2025-12-04T16:41:35.952864", "MEAN_MOTION": 14.19901167, "ECCENTRICITY": 6.19e-05, "INCLINATION": 98.6572, "RA_OF_ASC_NODE": 278.4611, "ARG_OF_PERICENTER": 73.715, "MEAN_ANOMALY": 286.4095, "EPHEMERIS_TYPE": 0, "CLASSIFICATION_TYPE": "U", "NORAD_CAT_ID": 65815, "ELEMENT_SET_NO": 999, "REV_AT_EPOCH": 978, "BSTAR": 0.00011312, "MEAN_MOTION_DOT": 1.97e-06, "MEAN_MOTION_DDOT": 0}, "tle": {"line1": "1 65815U 25219A   25338.69555501  .00000197  00000+0  11312-3 0  9998", "line2": "2 65815  98.6572 278.4611 0000619  73.7150 286.4095 14.19901167  9789"}}, "geometry": {"type": "Point", "coordinates": [-92.37016578522069, 52.848373679818216]}}]}